{"type": "FeatureCollection", "features": [ {"type": "Feature", "properties": {"norad_id": 51444, "name": "CSG-2", "group": "resource", "lat": 81.33459705210886, "lon": 93.77182115978445, "alt_km": 614.0733422679541, "timestamp": "2025-12-03T15:48:02.759447+00:00", "meta": {"OBJECT_NAME": "CSG-2", "OBJECT_ID": "2022-008A", "EPOCH": "2025-12-03T08:55:53.281344", "MEAN_MOTION": 14.82148336, "ECCENTRICITY": 0.00014808, "INCLINATION": 97.8807, "RA_OF_ASC_NODE": 158.8365, "ARG_OF_PERICENTER": 90.2189, "MEAN_ANOMALY": 269.9194, "EPHEMERIS_TYPE": 0, "CLASSIFICATION_TYPE": "U", "NORAD_CAT_ID": 51444, "ELEMENT_SET_NO": 999, "REV_AT_EPOCH": 20758, "BSTAR": 0.00014270566, "MEAN_MOTION_DOT": 1.084e-05, "MEAN_MOTION_DDOT": 0}, "tle": {"line1": "1 51444U 22008A   25337.37214446  .00001084  00000+0  14271-3 0  9991", "line2": "2 51444  97.8807 158.8365 0001480  90.2189 269.9194 14.82148336207589"}}, "geometry": {"type": "Point", "coordinates": [93.77182115978445, 81.33459705210886]}}, {"type": "Feature", "properties": {"norad_id": 52912, "name": "GAOFEN-12 03", "group": "resource", "lat": 81.47734932067554, "lon": 158.21745797626232, "alt_km": 621.6357539257342, "timestamp": "2025-12-03T15:48:02.759456+00:00", "meta": {"OBJECT_NAME": "GAOFEN-12 03", "OBJECT_ID": "2022-069A", "EPOCH": "2025-12-03T07:17:42.810144", "MEAN_MOTION": 14.79571718, "ECCENTRICITY": 0.0002322, "INCLINATION": 97.8487, "RA_OF_ASC_NODE": 224.8707, "ARG_OF_PERICENTER": 75.764, "MEAN_ANOMALY": 284.383, "EPHEMERIS_TYPE": 0, "CLASSIFICATION_TYPE": "U", "NORAD_CAT_ID": 52912, "ELEMENT_SET_NO": 999, "REV_AT_EPOCH": 18564, "BSTAR": 0.00024064021, "MEAN_MOTION_DOT": 1.751e-05, "MEAN_MOTION_DDOT": 0}, "tle": {"line1": "1 52912U 22069A   25337.30396771  .00001751  00000+0  24064-3 0  9996", "line2": "2 52912  97.8487 224.8707 0002322  75.7640 284.3830 14.79571718185644"}}, "geometry": {"type": "Point", "coordinates": [158.21745797626232, 81.47734932067554]}}, {"type": "Feature", "properties": {"norad_id": 54754, "name": "SWOT", "group": "resource", "lat": 47.20177570161865, "lon": 105.51647608737059, "alt_km": 888.6043186253701, "timestamp": "2025-12-03T15:48:02.759465+00:00", "meta": {"OBJECT_NAME": "SWOT", "OBJECT_ID": "2022-173A", "EPOCH": "2025-12-03T08:18:59.765184", "MEAN_MOTION": 14.00172416, "ECCENTRICITY": 3.108e-05, "INCLINATION": 77.6099, "RA_OF_ASC_NODE": 299.6704, "ARG_OF_PERICENTER": 138.7366, "MEAN_ANOMALY": 221.3809, "EPHEMERIS_TYPE": 0, "CLASSIFICATION_TYPE": "U", "NORAD_CAT_ID": 54754, "ELEMENT_SET_NO": 999, "REV_AT_EPOCH": 15174, "BSTAR": 6.5065883e-05, "MEAN_MOTION_DOT": 9.3e-07, "MEAN_MOTION_DDOT": 0}, "tle": {"line1": "1 54754U 22173A   25337.34652506  .00000093  00000+0  65066-4 0  9999", "line2": "2 54754  77.6099 299.6704 0000310 138.7366 221.3809 14.00172416151749"}}, "geometry": {"type": "Point", "coordinates": [105.51647608737059, 47.20177570161865]}}, {"type": "Feature", "properties": {"norad_id": 57654, "name": "GAOFEN-12 04", "group": "resource", "lat": -71.67970442792108, "lon": 48.72129657703642, "alt_km": 638.7315377037712, "timestamp": "2025-12-03T15:48:02.759474+00:00", "meta": {"OBJECT_NAME": "GAOFEN-12 04", "OBJECT_ID": "2023-123A", "EPOCH": "2025-12-03T08:10:01.494048", "MEAN_MOTION": 14.79653825, "ECCENTRICITY": 0.00014579, "INCLINATION": 97.9113, "RA_OF_ASC_NODE": 253.2407, "ARG_OF_PERICENTER": 71.1097, "MEAN_ANOMALY": 289.0272, "EPHEMERIS_TYPE": 0, "CLASSIFICATION_TYPE": "U", "NORAD_CAT_ID": 57654, "ELEMENT_SET_NO": 999, "REV_AT_EPOCH": 12366, "BSTAR": 0.00028673524, "MEAN_MOTION_DOT": 2.1e-05, "MEAN_MOTION_DDOT": 0}, "tle": {"line1": "1 57654U 23123A   25337.34029507  .00002100  00000+0  28674-3 0  9990", "line2": "2 57654  97.9113 253.2407 0001457  71.1097 289.0272 14.79653825123662"}}, "geometry": {"type": "Point", "coordinates": [48.72129657703642, -71.67970442792108]}}, {"type": "Feature", "properties": {"norad_id": 59065, "name": "PARS 1", "group": "resource", "lat": 81.35075074567862, "lon": -172.09776967527296, "alt_km": 428.12573965066076, "timestamp": "2025-12-03T15:48:02.759483+00:00", "meta": {"OBJECT_NAME": "PARS 1", "OBJECT_ID": "2024-039Q", "EPOCH": "2025-12-03T07:35:57.450624", "MEAN_MOTION": 15.40647767, "ECCENTRICITY": 0.00126576, "INCLINATION": 97.4618, "RA_OF_ASC_NODE": 308.0531, "ARG_OF_PERICENTER": 99.9884, "MEAN_ANOMALY": 260.2791, "EPHEMERIS_TYPE": 0, "CLASSIFICATION_TYPE": "U", "NORAD_CAT_ID": 59065, "ELEMENT_SET_NO": 999, "REV_AT_EPOCH": 9843, "BSTAR": 0.00036080478, "MEAN_MOTION_DOT": 0.00014669, "MEAN_MOTION_DDOT": 0}, "tle": {"line1": "1 59065U 24039Q   25337.31663716  .00014669  00000+0  36080-3 0  9991", "line2": "2 59065  97.4618 308.0531 0012657  99.9884 260.2791 15.40647767 98438"}}, "geometry": {"type": "Point", "coordinates": [-172.09776967527296, 81.35075074567862]}}, {"type": "Feature", "properties": {"norad_id": 59371, "name": "RESURS-P 4", "group": "resource", "lat": 16.143636666034737, "lon": 106.2884101501623, "alt_km": 471.21158201024537, "timestamp": "2025-12-03T15:48:02.759492+00:00", "meta": {"OBJECT_NAME": "RESURS-P 4", "OBJECT_ID": "2024-061A", "EPOCH": "2025-12-03T08:49:06.821184", "MEAN_MOTION": 15.31967562, "ECCENTRICITY": 0.00021586, "INCLINATION": 97.2528, "RA_OF_ASC_NODE": 283.8909, "ARG_OF_PERICENTER": 54.9959, "MEAN_ANOMALY": 305.1486, "EPHEMERIS_TYPE": 0, "CLASSIFICATION_TYPE": "U", "NORAD_CAT_ID": 59371, "ELEMENT_SET_NO": 999, "REV_AT_EPOCH": 9377, "BSTAR": 0.00020122333, "MEAN_MOTION_DOT": 6.135e-05, "MEAN_MOTION_DDOT": 0}, "tle": {"line1": "1 59371U 24061A   25337.36744006  .00006135  00000+0  20122-3 0  9992", "line2": "2 59371  97.2528 283.8909 0002158  54.9959 305.1486 15.31967562 93774"}}, "geometry": {"type": "Point", "coordinates": [106.2884101501623, 16.143636666034737]}}, {"type": "Feature", "properties": {"norad_id": 59625, "name": "LEGION 1", "group": "resource", "lat": 1.5798360141863492, "lon": -127.41616164134454, "alt_km": 523.0565763480408, "timestamp": "2025-12-03T15:48:02.759502+00:00", "meta": {"OBJECT_NAME": "LEGION 1", "OBJECT_ID": "2024-081A", "EPOCH": "2025-12-03T07:05:53.008224", "MEAN_MOTION": 15.16327554, "ECCENTRICITY": 0.00047274, "INCLINATION": 97.523, "RA_OF_ASC_NODE": 52.0155, "ARG_OF_PERICENTER": 354.6703, "MEAN_ANOMALY": 5.4478, "EPHEMERIS_TYPE": 0, "CLASSIFICATION_TYPE": "U", "NORAD_CAT_ID": 59625, "ELEMENT_SET_NO": 999, "REV_AT_EPOCH": 8784, "BSTAR": 0.00038891137, "MEAN_MOTION_DOT": 7.476e-05, "MEAN_MOTION_DDOT": 0}, "tle": {"line1": "1 59625U 24081A   25337.29575241  .00007476  00000+0  38891-3 0  9992", "line2": "2 59625  97.5230  52.0155 0004727 354.6703   5.4478 15.16327554 87845"}}, "geometry": {"type": "Point", "coordinates": [-127.41616164134454, 1.5798360141863492]}}, {"type": "Feature", "properties": {"norad_id": 59626, "name": "LEGION 2", "group": "resource", "lat": -2.394920852305997, "lon": 52.77852530812969, "alt_km": 516.4376338949442, "timestamp": "2025-12-03T15:48:02.759511+00:00", "meta": {"OBJECT_NAME": "LEGION 2", "OBJECT_ID": "2024-081B", "EPOCH": "2025-12-03T06:18:31.716576", "MEAN_MOTION": 15.16338726, "ECCENTRICITY": 0.00062555, "INCLINATION": 97.5233, "RA_OF_ASC_NODE": 52.0697, "ARG_OF_PERICENTER": 332.3345, "MEAN_ANOMALY": 27.7554, "EPHEMERIS_TYPE": 0, "CLASSIFICATION_TYPE": "U", "NORAD_CAT_ID": 59626, "ELEMENT_SET_NO": 999, "REV_AT_EPOCH": 8784, "BSTAR": 0.00033864324, "MEAN_MOTION_DOT": 6.503e-05, "MEAN_MOTION_DDOT": 0}, "tle": {"line1": "1 59626U 24081B   25337.26286709  .00006503  00000+0  33864-3 0  9993", "line2": "2 59626  97.5233  52.0697 0006255 332.3345  27.7554 15.16338726 87848"}}, "geometry": {"type": "Point", "coordinates": [52.77852530812969, -2.394920852305997]}}, {"type": "Feature", "properties": {"norad_id": 60182, "name": "ALOS-4 (DAICHI-4)", "group": "resource", "lat": 38.68323909128494, "lon": -100.96301573821383, "alt_km": 627.5038165312235, "timestamp": "2025-12-03T15:48:02.759521+00:00", "meta": {"OBJECT_NAME": "ALOS-4 (DAICHI-4)", "OBJECT_ID": "2024-123A", "EPOCH": "2025-11-30T09:15:12.370176", "MEAN_MOTION": 14.79468497, "ECCENTRICITY": 0.000127, "INCLINATION": 97.9232, "RA_OF_ASC_NODE": 69.4089, "ARG_OF_PERICENTER": 105.4124, "MEAN_ANOMALY": 254.7228, "EPHEMERIS_TYPE": 0, "CLASSIFICATION_TYPE": "U", "NORAD_CAT_ID": 60182, "ELEMENT_SET_NO": 999, "REV_AT_EPOCH": 7648, "BSTAR": -8.429942e-06, "MEAN_MOTION_DOT": -1.14e-06, "MEAN_MOTION_DDOT": 0}, "tle": {"line1": "1 60182U 24123A   25334.38555984 -.00000114  00000+0 -84299-5 0  9997", "line2": "2 60182  97.9232  69.4089 0001270 105.4124 254.7228 14.79468497 76488"}}, "geometry": {"type": "Point", "coordinates": [-100.96301573821383, 38.68323909128494]}}, {"type": "Feature", "properties": {"norad_id": 60452, "name": "LEGION 3", "group": "resource", "lat": -9.257663641009588, "lon": -10.57646871701401, "alt_km": 529.203704131759, "timestamp": "2025-12-03T15:48:02.759530+00:00", "meta": {"OBJECT_NAME": "LEGION 3", "OBJECT_ID": "2024-146A", "EPOCH": "2025-12-03T07:56:57.551424", "MEAN_MOTION": 15.15599051, "ECCENTRICITY": 0.00137802, "INCLINATION": 45.0024, "RA_OF_ASC_NODE": 0.5644, "ARG_OF_PERICENTER": 145.2727, "MEAN_ANOMALY": 214.9053, "EPHEMERIS_TYPE": 0, "CLASSIFICATION_TYPE": "U", "NORAD_CAT_ID": 60452, "ELEMENT_SET_NO": 999, "REV_AT_EPOCH": 7230, "BSTAR": 0.00039551608, "MEAN_MOTION_DOT": 7.397e-05, "MEAN_MOTION_DDOT": 0}, "tle": {"line1": "1 60452U 24146A   25337.33122166  .00007397  00000+0  39552-3 0  9990", "line2": "2 60452  45.0024   0.5644 0013780 145.2727 214.9053 15.15599051 72307"}}, "geometry": {"type": "Point", "coordinates": [-10.57646871701401, -9.257663641009588]}}]}